[{"OBJECT_NAME":"IRIDIUM 135","OBJECT_ID":"2017-083A","EPOCH":"2026-03-09T20:54:11.059776","MEAN_MOTION":14.34219982,"ECCENTRICITY":0.00022174,"INCLINATION":86.4022,"RA_OF_ASC_NODE":3.5181,"ARG_OF_PERICENTER":86.9121,"MEAN_ANOMALY":273.2329,"EPHEMERIS_TYPE":0,"CLASSIFICATION_TYPE":"U","NORAD_CAT_ID":43070,"ELEMENT_SET_NO":999,"REV_AT_EPOCH":42991,"BSTAR":4.5894748e-5,"MEAN_MOTION_DOT":1.48e-6,"MEAN_MOTION_DDOT":0},{"OBJECT_NAME":"SOICAL [CONE]","OBJECT_ID":"1969-082K","EPOCH":"2026-03-09T14:24:48.487680","MEAN_MOTION":14.31732793,"ECCENTRICITY":0.0012019,"INCLINATION":69.9923,"RA_OF_ASC_NODE":137.2884,"ARG_OF_PERICENTER":265.5688,"MEAN_ANOMALY":94.4063,"EPHEMERIS_TYPE":0,"CLASSIFICATION_TYPE":"U","NORAD_CAT_ID":4132,"ELEMENT_SET_NO":999,"REV_AT_EPOCH":90665,"BSTAR":0.00061226,"MEAN_MOTION_DOT":1.579e-5,"MEAN_MOTION_DDOT":0}]
